KUIPER-00214            
1 67778U 26030Q   26054.37031394  .00023961  00000+0  67934-3 0  9995
2 67778  51.8852 288.0971 0001821 148.7273 211.3822 15.36114663  2899
KUIPER-00215            
1 67779U 26030R   26054.25560766  .00035600  00000+0  10749-2 0  9997
2 67779  51.8841 288.8258 0009711  17.8554 342.2771 15.33883849  2879
KUIPER-00218            
1 67780U 26030S   26054.38120545  .00024588  00000+0  73107-3 0  9991
2 67780  51.8839 288.1673 0006192  14.5748 345.5415 15.34591186  2895
KUIPER-00220            
1 67781U 26030T   26054.25401669  .00031578  00000+0  94904-3 0  9992
2 67781  51.8815 288.8107 0007764  15.5790 344.5433 15.34105813  2878
KUIPER-00222            
1 67782U 26030U   26054.26364476 -.00011925  00000+0 -36229-3 0  9990
2 67782  51.8809 288.8704 0017017  20.7201 339.4470 15.32416846  2875
KUIPER-00223            
1 67783U 26030V   26054.25747610  .00030787  00000+0  93923-3 0  9994
2 67783  51.8837 288.8359 0011917  17.2064 342.9323 15.33604780  2877
KUIPER-00225            
1 67784U 26030W   26054.24647974  .00035359  00000+0  10242-2 0  9998
2 67784  51.8818 288.7638 0003624   6.0807 354.0223 15.35233922  2874
KUIPER-00226            
1 67785U 26030X   26054.20317063 -.00016109  00000+0 -50415-3 0  9999
2 67785  51.8806 289.2152 0019875  28.6377 331.5694 15.31708306  2866
KUIPER-00259            
1 67786U 26030Y   26054.38232582  .00032221  00000+0  95813-3 0  9993
2 67786  51.8822 288.1708 0007663   8.8154 351.2965 15.34431075  2897
KUIPER-00260            
1 67787U 26030Z   26054.24245315  .00021548  00000+0  61872-3 0  9995
2 67787  51.8806 288.7370 0001164  81.2386 278.8732 15.35782302  2780
KUIPER-00262            
1 67788U 26030AA  26054.17590501  .00027086  00000+0  76755-3 0  9997
2 67788  51.8819 289.0420 0001622 123.0338 237.0804 15.36060404  2865
KUIPER-00266            
1 67789U 26030AB  26054.14012986  .00021481  00000+0  70224-3 0  9999
2 67789  51.8807 289.5408 0021971  29.4156 330.8060 15.31440586  2853
