CCSDS_OMM_VERS = 2.0
CREATION_DATE  = 
ORIGINATOR     = 

OBJECT_NAME    = KUIPER-00214
OBJECT_ID      = 2026-030Q
CENTER_NAME    = EARTH
REF_FRAME      = TEME
TIME_SYSTEM    = UTC
MEAN_ELEMENT_THEORY = SGP/SGP4

EPOCH          = 2026-02-23T08:53:15.124416
MEAN_MOTION    = 15.36114663
ECCENTRICITY   = .0001821
INCLINATION    = 51.8852
RA_OF_ASC_NODE = 288.0971
ARG_OF_PERICENTER = 148.7273
MEAN_ANOMALY   = 211.3822

EPHEMERIS_TYPE = 0
CLASSIFICATION_TYPE = U
NORAD_CAT_ID   = 67778
ELEMENT_SET_NO = 999
REV_AT_EPOCH   = 289
BSTAR          = .67934E-3
MEAN_MOTION_DOT = .23961E-3
MEAN_MOTION_DDOT = 0

CCSDS_OMM_VERS = 2.0
CREATION_DATE  = 
ORIGINATOR     = 

OBJECT_NAME    = KUIPER-00215
OBJECT_ID      = 2026-030R
CENTER_NAME    = EARTH
REF_FRAME      = TEME
TIME_SYSTEM    = UTC
MEAN_ELEMENT_THEORY = SGP/SGP4

EPOCH          = 2026-02-23T06:08:04.501824
MEAN_MOTION    = 15.33883849
ECCENTRICITY   = .0009711
INCLINATION    = 51.8841
RA_OF_ASC_NODE = 288.8258
ARG_OF_PERICENTER = 17.8554
MEAN_ANOMALY   = 342.2771

EPHEMERIS_TYPE = 0
CLASSIFICATION_TYPE = U
NORAD_CAT_ID   = 67779
ELEMENT_SET_NO = 999
REV_AT_EPOCH   = 287
BSTAR          = .10749E-2
MEAN_MOTION_DOT = .356E-3
MEAN_MOTION_DDOT = 0

CCSDS_OMM_VERS = 2.0
CREATION_DATE  = 
ORIGINATOR     = 

OBJECT_NAME    = KUIPER-00218
OBJECT_ID      = 2026-030S
CENTER_NAME    = EARTH
REF_FRAME      = TEME
TIME_SYSTEM    = UTC
MEAN_ELEMENT_THEORY = SGP/SGP4

EPOCH          = 2026-02-23T09:08:56.150880
MEAN_MOTION    = 15.34591186
ECCENTRICITY   = .0006192
INCLINATION    = 51.8839
RA_OF_ASC_NODE = 288.1673
ARG_OF_PERICENTER = 14.5748
MEAN_ANOMALY   = 345.5415

EPHEMERIS_TYPE = 0
CLASSIFICATION_TYPE = U
NORAD_CAT_ID   = 67780
ELEMENT_SET_NO = 999
REV_AT_EPOCH   = 289
BSTAR          = .73107E-3
MEAN_MOTION_DOT = .24588E-3
MEAN_MOTION_DDOT = 0

CCSDS_OMM_VERS = 2.0
CREATION_DATE  = 
ORIGINATOR     = 

OBJECT_NAME    = KUIPER-00220
OBJECT_ID      = 2026-030T
CENTER_NAME    = EARTH
REF_FRAME      = TEME
TIME_SYSTEM    = UTC
MEAN_ELEMENT_THEORY = SGP/SGP4

EPOCH          = 2026-02-23T06:05:47.042016
MEAN_MOTION    = 15.34105813
ECCENTRICITY   = .0007764
INCLINATION    = 51.8815
RA_OF_ASC_NODE = 288.8107
ARG_OF_PERICENTER = 15.5790
MEAN_ANOMALY   = 344.5433

EPHEMERIS_TYPE = 0
CLASSIFICATION_TYPE = U
NORAD_CAT_ID   = 67781
ELEMENT_SET_NO = 999
REV_AT_EPOCH   = 287
BSTAR          = .94904E-3
MEAN_MOTION_DOT = .31578E-3
MEAN_MOTION_DDOT = 0

CCSDS_OMM_VERS = 2.0
CREATION_DATE  = 
ORIGINATOR     = 

OBJECT_NAME    = KUIPER-00222
OBJECT_ID      = 2026-030U
CENTER_NAME    = EARTH
REF_FRAME      = TEME
TIME_SYSTEM    = UTC
MEAN_ELEMENT_THEORY = SGP/SGP4

EPOCH          = 2026-02-23T06:19:38.907264
MEAN_MOTION    = 15.32416846
ECCENTRICITY   = .0017017
INCLINATION    = 51.8809
RA_OF_ASC_NODE = 288.8704
ARG_OF_PERICENTER = 20.7201
MEAN_ANOMALY   = 339.4470

EPHEMERIS_TYPE = 0
CLASSIFICATION_TYPE = U
NORAD_CAT_ID   = 67782
ELEMENT_SET_NO = 999
REV_AT_EPOCH   = 287
BSTAR          = -.36229E-3
MEAN_MOTION_DOT = -.11925E-3
MEAN_MOTION_DDOT = 0

CCSDS_OMM_VERS = 2.0
CREATION_DATE  = 
ORIGINATOR     = 

OBJECT_NAME    = KUIPER-00223
OBJECT_ID      = 2026-030V
CENTER_NAME    = EARTH
REF_FRAME      = TEME
TIME_SYSTEM    = UTC
MEAN_ELEMENT_THEORY = SGP/SGP4

EPOCH          = 2026-02-23T06:10:45.935040
MEAN_MOTION    = 15.33604780
ECCENTRICITY   = .0011917
INCLINATION    = 51.8837
RA_OF_ASC_NODE = 288.8359
ARG_OF_PERICENTER = 17.2064
MEAN_ANOMALY   = 342.9323

EPHEMERIS_TYPE = 0
CLASSIFICATION_TYPE = U
NORAD_CAT_ID   = 67783
ELEMENT_SET_NO = 999
REV_AT_EPOCH   = 287
BSTAR          = .93923E-3
MEAN_MOTION_DOT = .30787E-3
MEAN_MOTION_DDOT = 0

CCSDS_OMM_VERS = 2.0
CREATION_DATE  = 
ORIGINATOR     = 

OBJECT_NAME    = KUIPER-00225
OBJECT_ID      = 2026-030W
CENTER_NAME    = EARTH
REF_FRAME      = TEME
TIME_SYSTEM    = UTC
MEAN_ELEMENT_THEORY = SGP/SGP4

EPOCH          = 2026-02-23T05:54:55.849536
MEAN_MOTION    = 15.35233922
ECCENTRICITY   = .0003624
INCLINATION    = 51.8818
RA_OF_ASC_NODE = 288.7638
ARG_OF_PERICENTER = 6.0807
MEAN_ANOMALY   = 354.0223

EPHEMERIS_TYPE = 0
CLASSIFICATION_TYPE = U
NORAD_CAT_ID   = 67784
ELEMENT_SET_NO = 999
REV_AT_EPOCH   = 287
BSTAR          = .10242E-2
MEAN_MOTION_DOT = .35359E-3
MEAN_MOTION_DDOT = 0

CCSDS_OMM_VERS = 2.0
CREATION_DATE  = 
ORIGINATOR     = 

OBJECT_NAME    = KUIPER-00226
OBJECT_ID      = 2026-030X
CENTER_NAME    = EARTH
REF_FRAME      = TEME
TIME_SYSTEM    = UTC
MEAN_ELEMENT_THEORY = SGP/SGP4

EPOCH          = 2026-02-23T04:52:33.942432
MEAN_MOTION    = 15.31708306
ECCENTRICITY   = .0019875
INCLINATION    = 51.8806
RA_OF_ASC_NODE = 289.2152
ARG_OF_PERICENTER = 28.6377
MEAN_ANOMALY   = 331.5694

EPHEMERIS_TYPE = 0
CLASSIFICATION_TYPE = U
NORAD_CAT_ID   = 67785
ELEMENT_SET_NO = 999
REV_AT_EPOCH   = 286
BSTAR          = -.50415E-3
MEAN_MOTION_DOT = -.16109E-3
MEAN_MOTION_DDOT = 0

CCSDS_OMM_VERS = 2.0
CREATION_DATE  = 
ORIGINATOR     = 

OBJECT_NAME    = KUIPER-00259
OBJECT_ID      = 2026-030Y
CENTER_NAME    = EARTH
REF_FRAME      = TEME
TIME_SYSTEM    = UTC
MEAN_ELEMENT_THEORY = SGP/SGP4

EPOCH          = 2026-02-23T09:10:32.950848
MEAN_MOTION    = 15.34431075
ECCENTRICITY   = .0007663
INCLINATION    = 51.8822
RA_OF_ASC_NODE = 288.1708
ARG_OF_PERICENTER = 8.8154
MEAN_ANOMALY   = 351.2965

EPHEMERIS_TYPE = 0
CLASSIFICATION_TYPE = U
NORAD_CAT_ID   = 67786
ELEMENT_SET_NO = 999
REV_AT_EPOCH   = 289
BSTAR          = .95813E-3
MEAN_MOTION_DOT = .32221E-3
MEAN_MOTION_DDOT = 0

CCSDS_OMM_VERS = 2.0
CREATION_DATE  = 
ORIGINATOR     = 

OBJECT_NAME    = KUIPER-00260
OBJECT_ID      = 2026-030Z
CENTER_NAME    = EARTH
REF_FRAME      = TEME
TIME_SYSTEM    = UTC
MEAN_ELEMENT_THEORY = SGP/SGP4

EPOCH          = 2026-02-23T05:49:07.952160
MEAN_MOTION    = 15.35782302
ECCENTRICITY   = .0001164
INCLINATION    = 51.8806
RA_OF_ASC_NODE = 288.7370
ARG_OF_PERICENTER = 81.2386
MEAN_ANOMALY   = 278.8732

EPHEMERIS_TYPE = 0
CLASSIFICATION_TYPE = U
NORAD_CAT_ID   = 67787
ELEMENT_SET_NO = 999
REV_AT_EPOCH   = 278
BSTAR          = .61872E-3
MEAN_MOTION_DOT = .21548E-3
MEAN_MOTION_DDOT = 0

CCSDS_OMM_VERS = 2.0
CREATION_DATE  = 
ORIGINATOR     = 

OBJECT_NAME    = KUIPER-00262
OBJECT_ID      = 2026-030AA
CENTER_NAME    = EARTH
REF_FRAME      = TEME
TIME_SYSTEM    = UTC
MEAN_ELEMENT_THEORY = SGP/SGP4

EPOCH          = 2026-02-23T04:13:18.192864
MEAN_MOTION    = 15.36060404
ECCENTRICITY   = .00016223
INCLINATION    = 51.8819
RA_OF_ASC_NODE = 289.0420
ARG_OF_PERICENTER = 123.0338
MEAN_ANOMALY   = 237.0804

EPHEMERIS_TYPE = 0
CLASSIFICATION_TYPE = U
NORAD_CAT_ID   = 67788
ELEMENT_SET_NO = 999
REV_AT_EPOCH   = 286
BSTAR          = .76754846E-3
MEAN_MOTION_DOT = .27086E-3
MEAN_MOTION_DDOT = 0

CCSDS_OMM_VERS = 2.0
CREATION_DATE  = 
ORIGINATOR     = 

OBJECT_NAME    = KUIPER-00266
OBJECT_ID      = 2026-030AB
CENTER_NAME    = EARTH
REF_FRAME      = TEME
TIME_SYSTEM    = UTC
MEAN_ELEMENT_THEORY = SGP/SGP4

EPOCH          = 2026-02-23T03:21:47.219904
MEAN_MOTION    = 15.31440586
ECCENTRICITY   = .00219719
INCLINATION    = 51.8807
RA_OF_ASC_NODE = 289.5408
ARG_OF_PERICENTER = 29.4156
MEAN_ANOMALY   = 330.8060

EPHEMERIS_TYPE = 0
CLASSIFICATION_TYPE = U
NORAD_CAT_ID   = 67789
ELEMENT_SET_NO = 999
REV_AT_EPOCH   = 285
BSTAR          = .70224354E-3
MEAN_MOTION_DOT = .21481E-3
MEAN_MOTION_DDOT = 0

